STARLINK-37255          
1 68554U 26070N   26191.29941726  .00019490  00000+0  58632-3 0  9991
2 68554  53.1558 151.1748 0002280  92.5756 267.5508 15.34407147 15353
STARLINK-37146          
1 68555U 26070P   26191.30361850  .00029088  00000+0  86947-3 0  9992
2 68555  53.1571 151.1956 0000916  95.1360 264.9747 15.34371318 15350
STARLINK-37144          
1 68556U 26070Q   26191.29520202  .00020200  00000+0  60656-3 0  9995
2 68556  53.1571 151.1350 0000858 118.5120 241.5969 15.34441739 15350
STARLINK-37210          
1 68557U 26070R   26189.40836488  .00014232  00000+0  43147-3 0  9996
2 68557  53.1571 159.9845 0001336  68.1089 292.0056 15.34405762 15064
STARLINK-37227          
1 68558U 26070S   26190.51146045  .00002936  00000+0  97924-4 0  9995
2 68558  53.1556 154.7856 0001679 135.0849 225.0290 15.34431069 15235
STARLINK-37294          
1 68559U 26070T   26190.31395826  .00025168  00000+0  75299-3 0  9999
2 68559  53.1574 155.6874 0002532  74.2483 285.8798 15.34420801 15209
STARLINK-37291          
1 68560U 26070U   26190.31184836  .00018044  00000+0  54322-3 0  9997
2 68560  53.1595 155.6722 0001104 136.6563 223.4527 15.34438814 15203
STARLINK-37114          
1 68561U 26070V   26190.63542105  .00015528  00000+0  46946-3 0  9997
2 68561  53.1582 154.1329 0001023 123.1870 236.9231 15.34420268 15259
STARLINK-37233          
1 68562U 26070W   26190.63120929  .00021395  00000+0  64269-3 0  9991
2 68562  53.1581 154.0885 0000569  78.1552 281.9514 15.34391857 15250
STARLINK-36238          
1 68563U 26070X   26191.28468327  .00005680  00000+0  17911-3 0  9992
2 68563  53.1568 151.0750 0001261  89.1414 270.9733 15.34397643 15354
STARLINK-37008          
1 68564U 26070Y   26190.62911076  .00006531  00000+0  20418-3 0  9996
2 68564  53.1544 154.0792 0002306  72.7905 287.3350 15.34413389 15254
STARLINK-37161          
1 68565U 26070Z   26191.27837174  .00016582  00000+0  50090-3 0  9991
2 68565  53.1573 151.0187 0002425  67.0565 293.0694 15.34393523 15356
STARLINK-37212          
1 68566U 26070AA  26191.27626673  .00004096  00000+0  13235-3 0  9999
2 68566  53.1585 151.0186 0001361  74.1669 285.9483 15.34386941 15353
STARLINK-37261          
1 68567U 26070AB  26190.62279368  .00013542  00000+0  41119-3 0  9991
2 68567  53.1578 154.0351 0000695  61.5155 298.5918 15.34399774 15252
STARLINK-37283          
1 68568U 26070AC  26190.61867850 -.00003196  00000+0 -83484-4 0  9998
2 68568  53.1587 154.7462 0001205  75.5185 284.5951 15.34401374 15240
STARLINK-37256          
1 68569U 26070AD  26191.27205934  .00018288  00000+0  55097-3 0  9995
2 68569  53.1574 151.0113 0000960 109.7077 250.4029 15.34405879 15351
STARLINK-37228          
1 68570U 26070AE  26191.26793232  .00017885  00000+0  53881-3 0  9990
2 68570  53.1581 151.6992 0002372 262.9477  97.1256 15.34422923 15343
MERIDIAN-M 21L          
1 68571U 26071A   26191.14211768  .00000224  00000+0  00000+0 0  9998
2 68571  62.8140 225.6720 7163436 285.2998  11.3483  2.00615015  1974
KUIPER-00131            
1 68573U 26072A   26191.11735765  .00002426  00000+0  34711-3 0  9992
2 68573  51.9001  94.2527 0000730  98.8698 261.2347 14.79937205 14517
KUIPER-00189            
1 68574U 26072B   26190.94584230  .00002113  00000+0  30617-3 0  9996
2 68574  51.8983  97.4971 0000748 102.8629 257.2417 14.79923980 14454
KUIPER-00192            
1 68575U 26072C   26189.90449957  .00003984  00000+0  55113-3 0  9992
2 68575  51.8984  97.1101 0001071 130.2450 229.8606 14.79944346 14370
KUIPER-00193            
1 68576U 26072D   26190.10531988  .00001581  00000+0  25481-3 0  9999
2 68576  51.9042  86.1104 0000484 358.5999   1.4961 14.76600212 14543
KUIPER-00194            
1 68577U 26072E   26191.08890883  .00002428  00000+0  34746-3 0  9995
2 68577  51.9020  89.3872 0000806 143.6684 216.4333 14.79916974 14582
KUIPER-00229            
1 68578U 26072F   26191.15110948 -.00001120  00000+0 -11795-3 0  9990
2 68578  51.8999  94.0995 0000842 113.1426 246.9625 14.79929662 14526
KUIPER-00230            
1 68579U 26072G   26190.08379322  .00019129  00000+0  50388-3 0  9992
2 68579  51.8762  70.7124 0003098  81.3992 278.7347 15.38544159 14759
KUIPER-00231            
1 68580U 26072H   26191.25002315 -.01117209  00000+0 -84066-1 0  9998
2 68580  51.9048  67.1371 0001428  73.2259 251.5735 15.05162507  4840
KUIPER-00234            
1 68581U 26072J   26191.11093067  .00001436  00000+0  23428-3 0  9996
2 68581  51.8987  89.1488 0000379 270.8591  89.2327 14.76585991 14581
KUIPER-00236            
1 68582U 26072K   26191.07806476  .00023945  00000+0  63752-3 0  9991
2 68582  51.8760  66.1239 0003290 101.6913 258.4444 15.38067027 14904
KUIPER-00244            
1 68583U 26072L   26191.16726763 -.00001725  00000+0 -19708-3 0  9998
2 68583  51.8989  79.0438 0001427 104.4043 255.7078 14.79979482 14732
KUIPER-00253            
1 68584U 26072M   26191.16461284  .00002380  00000+0  34102-3 0  9994
2 68584  51.9035  81.5579 0000710  97.2192 262.8851 14.79933555 14692
