OBJECT_NAME,OBJECT_ID,EPOCH,MEAN_MOTION,ECCENTRICITY,INCLINATION,RA_OF_ASC_NODE,ARG_OF_PERICENTER,MEAN_ANOMALY,EPHEMERIS_TYPE,CLASSIFICATION_TYPE,NORAD_CAT_ID,ELEMENT_SET_NO,REV_AT_EPOCH,BSTAR,MEAN_MOTION_DOT,MEAN_MOTION_DDOT
STARLINK-37255,2026-070N,2026-07-10T07:11:09.651264,15.34407147,.000228,53.1558,151.1748,92.5756,267.5508,0,U,68554,999,1535,.58632089E-3,.1949E-3,0
STARLINK-37146,2026-070P,2026-07-10T07:17:12.638400,15.34371318,.00009166,53.1571,151.1956,95.1360,264.9747,0,U,68555,999,1535,.86947214E-3,.29088E-3,0
STARLINK-37144,2026-070Q,2026-07-10T07:05:05.454528,15.34441739,.00008582,53.1571,151.1350,118.5120,241.5969,0,U,68556,999,1535,.60655571E-3,.202E-3,0
STARLINK-37210,2026-070R,2026-07-08T09:48:02.725632,15.34405762,.00013361,53.1571,159.9845,68.1089,292.0056,0,U,68557,999,1506,.43146595E-3,.14232E-3,0
STARLINK-37227,2026-070S,2026-07-09T12:16:30.182880,15.34431069,.00016796,53.1556,154.7856,135.0849,225.0290,0,U,68558,999,1523,.97924126E-4,.2936E-4,0
STARLINK-37294,2026-070T,2026-07-09T07:32:05.993664,15.34420801,.00025329,53.1574,155.6874,74.2483,285.8798,0,U,68559,999,1520,.75299242E-3,.25168E-3,0
STARLINK-37291,2026-070U,2026-07-09T07:29:03.698304,15.34438814,.00011047,53.1595,155.6722,136.6563,223.4527,0,U,68560,999,1520,.54321902E-3,.18044E-3,0
STARLINK-37114,2026-070V,2026-07-09T15:15:00.378720,15.34420268,.00010237,53.1582,154.1329,123.1870,236.9231,0,U,68561,999,1525,.46946344E-3,.15528E-3,0
STARLINK-37233,2026-070W,2026-07-09T15:08:56.482656,15.34391857,.00005692,53.1581,154.0885,78.1552,281.9514,0,U,68562,999,1525,.64268746E-3,.21395E-3,0
STARLINK-36238,2026-070X,2026-07-10T06:49:56.634528,15.34397643,.00012616,53.1568,151.0750,89.1414,270.9733,0,U,68563,999,1535,.17911388E-3,.568E-4,0
STARLINK-37008,2026-070Y,2026-07-09T15:05:55.169664,15.34413389,.00023068,53.1544,154.0792,72.7905,287.3350,0,U,68564,999,1525,.20418063E-3,.6531E-4,0
STARLINK-37161,2026-070Z,2026-07-10T06:40:51.318336,15.34393523,.00024256,53.1573,151.0187,67.0565,293.0694,0,U,68565,999,1535,.50090453E-3,.16582E-3,0
STARLINK-37212,2026-070AA,2026-07-10T06:37:49.445472,15.34386941,.00013615,53.1585,151.0186,74.1669,285.9483,0,U,68566,999,1535,.13235268E-3,.4096E-4,0
STARLINK-37261,2026-070AB,2026-07-09T14:56:49.373952,15.34399774,.00006954,53.1578,154.0351,61.5155,298.5918,0,U,68567,999,1525,.41118553E-3,.13542E-3,0
STARLINK-37283,2026-070AC,2026-07-09T14:50:53.822400,15.34401374,.00012058,53.1587,154.7462,75.5185,284.5951,0,U,68568,999,1524,-.83483608E-4,-.3196E-4,0
STARLINK-37256,2026-070AD,2026-07-10T06:31:45.926976,15.34405879,.00009605,53.1574,151.0113,109.7077,250.4029,0,U,68569,999,1535,.55097027E-3,.18288E-3,0
STARLINK-37228,2026-070AE,2026-07-10T06:25:49.352448,15.34422923,.00023723,53.1581,151.6992,262.9477,97.1256,0,U,68570,999,1534,.53881363E-3,.17885E-3,0
MERIDIAN-M 21L,2026-071A,2026-07-10T03:24:38.967552,2.00615015,.71634366,62.8140,225.6720,285.2998,11.3483,0,U,68571,999,197,0,.224E-5,0
KUIPER-00131,2026-072A,2026-07-10T02:48:59.700960,14.79937205,.00007302,51.9001,94.2527,98.8698,261.2347,0,U,68573,999,1451,.34710514E-3,.2426E-4,0
KUIPER-00189,2026-072B,2026-07-09T22:42:00.774720,14.79923980,.00007482,51.8983,97.4971,102.8629,257.2417,0,U,68574,999,1445,.30617251E-3,.2113E-4,0
KUIPER-00192,2026-072C,2026-07-08T21:42:28.762848,14.79944346,.0001071,51.8984,97.1101,130.2450,229.8606,0,U,68575,999,1437,.55113479E-3,.3984E-4,0
KUIPER-00193,2026-072D,2026-07-09T02:31:39.637632,14.76600212,.00004844,51.9042,86.1104,358.5999,1.4961,0,U,68576,999,1454,.25480685E-3,.1581E-4,0
KUIPER-00194,2026-072E,2026-07-10T02:08:01.722912,14.79916974,.00008068,51.9020,89.3872,143.6684,216.4333,0,U,68577,999,1458,.34746388E-3,.2428E-4,0
KUIPER-00229,2026-072F,2026-07-10T03:37:35.859072,14.79929662,.00008427,51.8999,94.0995,113.1426,246.9625,0,U,68578,999,1452,-.11795443E-3,-.112E-4,0
KUIPER-00230,2026-072G,2026-07-09T02:00:39.734208,15.38544159,.00030989,51.8762,70.7124,81.3992,278.7347,0,U,68579,999,1475,.50387592E-3,.19129E-3,0
KUIPER-00231,2026-072H,2026-07-10T06:00:02.000160,15.05162507,.00014282,51.9048,67.1371,73.2259,251.5735,0,U,68580,999,484,-.84066441E-1,-.1117209E-1,0
KUIPER-00234,2026-072J,2026-07-10T02:39:44.409888,14.76585991,.00003799,51.8987,89.1488,270.8591,89.2327,0,U,68581,999,1458,.23427859E-3,.1436E-4,0
KUIPER-00236,2026-072K,2026-07-10T01:52:24.795264,15.38067027,.00032904,51.8760,66.1239,101.6913,258.4444,0,U,68582,999,1490,.63751627E-3,.23945E-3,0
KUIPER-00244,2026-072L,2026-07-10T04:00:51.923232,14.79979482,.00014276,51.8989,79.0438,104.4043,255.7078,0,U,68583,999,1473,-.19707753E-3,-.1725E-4,0
KUIPER-00253,2026-072M,2026-07-10T03:57:02.549376,14.79933555,.00007103,51.9035,81.5579,97.2192,262.8851,0,U,68584,999,1469,.34102349E-3,.238E-4,0
